ORBCOMM-X               
1 21576U 91050C   25287.27104921  .00000481  00000+0  15546-3 0  9992
2 21576  98.3307 351.3739 0003783 167.9303 192.1979 14.43362185799295
ORBCOMM FM01            
1 23545U 95017A   25286.56520778  .00008836  00000+0  88289-3 0  9996
2 23545  69.9621 138.6479 0002954 185.7342 174.3781 14.91759662630158
ORBCOMM FM02            
1 23546U 95017B   25287.09769063  .00008996  00000+0  87185-3 0  9999
2 23546  69.9627 156.2564 0004081 171.9029 188.2193 14.92972895629894
ORBCOMM FM08            
1 25112U 97084A   25287.01446497  .00001927  00000+0  57296-3 0  9998
2 25112  45.0119 157.2784 0006131 123.5568 236.5870 14.46251677458571
ORBCOMM FM10            
1 25113U 97084B   25287.01362358  .00002103  00000+0  62449-3 0  9995
2 25113  45.0134 159.8771 0004999  86.7503 273.3921 14.46030261633713
ORBCOMM FM11            
1 25114U 97084C   25286.69340822  .00001804  00000+0  54440-3 0  9990
2 25114  45.0119 162.2647 0005808  87.2802 272.8714 14.45768768458623
ORBCOMM FM12            
1 25115U 97084D   25287.06886341  .00001914  00000+0  57480-3 0  9993
2 25115  45.0125 160.2011 0004896  84.8586 275.2824 14.45787500458479
ORBCOMM FM09            
1 25116U 97084E   25286.69726953  .00001736  00000+0  52671-3 0  9993
2 25116  45.0131 163.0411 0006231  74.4657 285.6882 14.45645670458628
