<?xml version="1.0" encoding="UTF-8"?>
<ndm xmlns:xsi="http://www.w3.org/2001/XMLSchema-instance" xsi:noNamespaceSchemaLocation="https://sanaregistry.org/r/ndmxml_unqualified/ndmxml-2.0.0-master-2.0.xsd">
<omm id="CCSDS_OMM_VERS" version="2.0">
<header><CREATION_DATE/><ORIGINATOR/></header><body><segment><metadata><OBJECT_NAME>ORBCOMM-X</OBJECT_NAME><OBJECT_ID>1991-050C</OBJECT_ID><CENTER_NAME>EARTH</CENTER_NAME><REF_FRAME>TEME</REF_FRAME><TIME_SYSTEM>UTC</TIME_SYSTEM><MEAN_ELEMENT_THEORY>SGP4</MEAN_ELEMENT_THEORY></metadata><data><meanElements><EPOCH>2025-10-14T06:30:18.651744</EPOCH><MEAN_MOTION>14.43362185</MEAN_MOTION><ECCENTRICITY>.00037839</ECCENTRICITY><INCLINATION>98.3307</INCLINATION><RA_OF_ASC_NODE>351.3739</RA_OF_ASC_NODE><ARG_OF_PERICENTER>167.9303</ARG_OF_PERICENTER><MEAN_ANOMALY>192.1979</MEAN_ANOMALY></meanElements><tleParameters><EPHEMERIS_TYPE>0</EPHEMERIS_TYPE><CLASSIFICATION_TYPE>U</CLASSIFICATION_TYPE><NORAD_CAT_ID>21576</NORAD_CAT_ID><ELEMENT_SET_NO>999</ELEMENT_SET_NO><REV_AT_EPOCH>79929</REV_AT_EPOCH><BSTAR>.15546271E-3</BSTAR><MEAN_MOTION_DOT>.481E-5</MEAN_MOTION_DOT><MEAN_MOTION_DDOT>0</MEAN_MOTION_DDOT></tleParameters></data></segment></body></omm>
<omm id="CCSDS_OMM_VERS" version="2.0">
<header><CREATION_DATE/><ORIGINATOR/></header><body><segment><metadata><OBJECT_NAME>ORBCOMM FM01</OBJECT_NAME><OBJECT_ID>1995-017A</OBJECT_ID><CENTER_NAME>EARTH</CENTER_NAME><REF_FRAME>TEME</REF_FRAME><TIME_SYSTEM>UTC</TIME_SYSTEM><MEAN_ELEMENT_THEORY>SGP4</MEAN_ELEMENT_THEORY></metadata><data><meanElements><EPOCH>2025-10-13T13:33:53.952192</EPOCH><MEAN_MOTION>14.91759662</MEAN_MOTION><ECCENTRICITY>.00029543</ECCENTRICITY><INCLINATION>69.9621</INCLINATION><RA_OF_ASC_NODE>138.6479</RA_OF_ASC_NODE><ARG_OF_PERICENTER>185.7342</ARG_OF_PERICENTER><MEAN_ANOMALY>174.3781</MEAN_ANOMALY></meanElements><tleParameters><EPHEMERIS_TYPE>0</EPHEMERIS_TYPE><CLASSIFICATION_TYPE>U</CLASSIFICATION_TYPE><NORAD_CAT_ID>23545</NORAD_CAT_ID><ELEMENT_SET_NO>999</ELEMENT_SET_NO><REV_AT_EPOCH>63015</REV_AT_EPOCH><BSTAR>.88289385E-3</BSTAR><MEAN_MOTION_DOT>.8836E-4</MEAN_MOTION_DOT><MEAN_MOTION_DDOT>0</MEAN_MOTION_DDOT></tleParameters></data></segment></body></omm>
<omm id="CCSDS_OMM_VERS" version="2.0">
<header><CREATION_DATE/><ORIGINATOR/></header><body><segment><metadata><OBJECT_NAME>ORBCOMM FM02</OBJECT_NAME><OBJECT_ID>1995-017B</OBJECT_ID><CENTER_NAME>EARTH</CENTER_NAME><REF_FRAME>TEME</REF_FRAME><TIME_SYSTEM>UTC</TIME_SYSTEM><MEAN_ELEMENT_THEORY>SGP4</MEAN_ELEMENT_THEORY></metadata><data><meanElements><EPOCH>2025-10-14T02:20:40.470432</EPOCH><MEAN_MOTION>14.92972895</MEAN_MOTION><ECCENTRICITY>.00040818</ECCENTRICITY><INCLINATION>69.9627</INCLINATION><RA_OF_ASC_NODE>156.2564</RA_OF_ASC_NODE><ARG_OF_PERICENTER>171.9029</ARG_OF_PERICENTER><MEAN_ANOMALY>188.2193</MEAN_ANOMALY></meanElements><tleParameters><EPHEMERIS_TYPE>0</EPHEMERIS_TYPE><CLASSIFICATION_TYPE>U</CLASSIFICATION_TYPE><NORAD_CAT_ID>23546</NORAD_CAT_ID><ELEMENT_SET_NO>999</ELEMENT_SET_NO><REV_AT_EPOCH>62989</REV_AT_EPOCH><BSTAR>.87184916E-3</BSTAR><MEAN_MOTION_DOT>.8996E-4</MEAN_MOTION_DOT><MEAN_MOTION_DDOT>0</MEAN_MOTION_DDOT></tleParameters></data></segment></body></omm>
<omm id="CCSDS_OMM_VERS" version="2.0">
<header><CREATION_DATE/><ORIGINATOR/></header><body><segment><metadata><OBJECT_NAME>ORBCOMM FM08</OBJECT_NAME><OBJECT_ID>1997-084A</OBJECT_ID><CENTER_NAME>EARTH</CENTER_NAME><REF_FRAME>TEME</REF_FRAME><TIME_SYSTEM>UTC</TIME_SYSTEM><MEAN_ELEMENT_THEORY>SGP4</MEAN_ELEMENT_THEORY></metadata><data><meanElements><EPOCH>2025-10-14T00:20:49.773408</EPOCH><MEAN_MOTION>14.46251677</MEAN_MOTION><ECCENTRICITY>.00061319</ECCENTRICITY><INCLINATION>45.0119</INCLINATION><RA_OF_ASC_NODE>157.2784</RA_OF_ASC_NODE><ARG_OF_PERICENTER>123.5568</ARG_OF_PERICENTER><MEAN_ANOMALY>236.5870</MEAN_ANOMALY></meanElements><tleParameters><EPHEMERIS_TYPE>0</EPHEMERIS_TYPE><CLASSIFICATION_TYPE>U</CLASSIFICATION_TYPE><NORAD_CAT_ID>25112</NORAD_CAT_ID><ELEMENT_SET_NO>999</ELEMENT_SET_NO><REV_AT_EPOCH>45857</REV_AT_EPOCH><BSTAR>.57295946E-3</BSTAR><MEAN_MOTION_DOT>.1927E-4</MEAN_MOTION_DOT><MEAN_MOTION_DDOT>0</MEAN_MOTION_DDOT></tleParameters></data></segment></body></omm>
<omm id="CCSDS_OMM_VERS" version="2.0">
<header><CREATION_DATE/><ORIGINATOR/></header><body><segment><metadata><OBJECT_NAME>ORBCOMM FM10</OBJECT_NAME><OBJECT_ID>1997-084B</OBJECT_ID><CENTER_NAME>EARTH</CENTER_NAME><REF_FRAME>TEME</REF_FRAME><TIME_SYSTEM>UTC</TIME_SYSTEM><MEAN_ELEMENT_THEORY>SGP4</MEAN_ELEMENT_THEORY></metadata><data><meanElements><EPOCH>2025-10-14T00:19:37.077312</EPOCH><MEAN_MOTION>14.46030261</MEAN_MOTION><ECCENTRICITY>.00049993</ECCENTRICITY><INCLINATION>45.0134</INCLINATION><RA_OF_ASC_NODE>159.8771</RA_OF_ASC_NODE><ARG_OF_PERICENTER>86.7503</ARG_OF_PERICENTER><MEAN_ANOMALY>273.3921</MEAN_ANOMALY></meanElements><tleParameters><EPHEMERIS_TYPE>0</EPHEMERIS_TYPE><CLASSIFICATION_TYPE>U</CLASSIFICATION_TYPE><NORAD_CAT_ID>25113</NORAD_CAT_ID><ELEMENT_SET_NO>999</ELEMENT_SET_NO><REV_AT_EPOCH>63371</REV_AT_EPOCH><BSTAR>.62448584E-3</BSTAR><MEAN_MOTION_DOT>.2103E-4</MEAN_MOTION_DOT><MEAN_MOTION_DDOT>0</MEAN_MOTION_DDOT></tleParameters></data></segment></body></omm>
<omm id="CCSDS_OMM_VERS" version="2.0">
<header><CREATION_DATE/><ORIGINATOR/></header><body><segment><metadata><OBJECT_NAME>ORBCOMM FM11</OBJECT_NAME><OBJECT_ID>1997-084C</OBJECT_ID><CENTER_NAME>EARTH</CENTER_NAME><REF_FRAME>TEME</REF_FRAME><TIME_SYSTEM>UTC</TIME_SYSTEM><MEAN_ELEMENT_THEORY>SGP4</MEAN_ELEMENT_THEORY></metadata><data><meanElements><EPOCH>2025-10-13T16:38:30.470208</EPOCH><MEAN_MOTION>14.45768768</MEAN_MOTION><ECCENTRICITY>.00058082</ECCENTRICITY><INCLINATION>45.0119</INCLINATION><RA_OF_ASC_NODE>162.2647</RA_OF_ASC_NODE><ARG_OF_PERICENTER>87.2802</ARG_OF_PERICENTER><MEAN_ANOMALY>272.8714</MEAN_ANOMALY></meanElements><tleParameters><EPHEMERIS_TYPE>0</EPHEMERIS_TYPE><CLASSIFICATION_TYPE>U</CLASSIFICATION_TYPE><NORAD_CAT_ID>25114</NORAD_CAT_ID><ELEMENT_SET_NO>999</ELEMENT_SET_NO><REV_AT_EPOCH>45862</REV_AT_EPOCH><BSTAR>.54439765E-3</BSTAR><MEAN_MOTION_DOT>.1804E-4</MEAN_MOTION_DOT><MEAN_MOTION_DDOT>0</MEAN_MOTION_DDOT></tleParameters></data></segment></body></omm>
<omm id="CCSDS_OMM_VERS" version="2.0">
<header><CREATION_DATE/><ORIGINATOR/></header><body><segment><metadata><OBJECT_NAME>ORBCOMM FM12</OBJECT_NAME><OBJECT_ID>1997-084D</OBJECT_ID><CENTER_NAME>EARTH</CENTER_NAME><REF_FRAME>TEME</REF_FRAME><TIME_SYSTEM>UTC</TIME_SYSTEM><MEAN_ELEMENT_THEORY>SGP4</MEAN_ELEMENT_THEORY></metadata><data><meanElements><EPOCH>2025-10-14T01:39:09.798624</EPOCH><MEAN_MOTION>14.45787500</MEAN_MOTION><ECCENTRICITY>.00048968</ECCENTRICITY><INCLINATION>45.0125</INCLINATION><RA_OF_ASC_NODE>160.2011</RA_OF_ASC_NODE><ARG_OF_PERICENTER>84.8586</ARG_OF_PERICENTER><MEAN_ANOMALY>275.2824</MEAN_ANOMALY></meanElements><tleParameters><EPHEMERIS_TYPE>0</EPHEMERIS_TYPE><CLASSIFICATION_TYPE>U</CLASSIFICATION_TYPE><NORAD_CAT_ID>25115</NORAD_CAT_ID><ELEMENT_SET_NO>999</ELEMENT_SET_NO><REV_AT_EPOCH>45847</REV_AT_EPOCH><BSTAR>.57480443E-3</BSTAR><MEAN_MOTION_DOT>.1914E-4</MEAN_MOTION_DOT><MEAN_MOTION_DDOT>0</MEAN_MOTION_DDOT></tleParameters></data></segment></body></omm>
<omm id="CCSDS_OMM_VERS" version="2.0">
<header><CREATION_DATE/><ORIGINATOR/></header><body><segment><metadata><OBJECT_NAME>ORBCOMM FM09</OBJECT_NAME><OBJECT_ID>1997-084E</OBJECT_ID><CENTER_NAME>EARTH</CENTER_NAME><REF_FRAME>TEME</REF_FRAME><TIME_SYSTEM>UTC</TIME_SYSTEM><MEAN_ELEMENT_THEORY>SGP4</MEAN_ELEMENT_THEORY></metadata><data><meanElements><EPOCH>2025-10-13T16:44:04.087392</EPOCH><MEAN_MOTION>14.45645670</MEAN_MOTION><ECCENTRICITY>.0006231</ECCENTRICITY><INCLINATION>45.0131</INCLINATION><RA_OF_ASC_NODE>163.0411</RA_OF_ASC_NODE><ARG_OF_PERICENTER>74.4657</ARG_OF_PERICENTER><MEAN_ANOMALY>285.6882</MEAN_ANOMALY></meanElements><tleParameters><EPHEMERIS_TYPE>0</EPHEMERIS_TYPE><CLASSIFICATION_TYPE>U</CLASSIFICATION_TYPE><NORAD_CAT_ID>25116</NORAD_CAT_ID><ELEMENT_SET_NO>999</ELEMENT_SET_NO><REV_AT_EPOCH>45862</REV_AT_EPOCH><BSTAR>.52671476E-3</BSTAR><MEAN_MOTION_DOT>.1736E-4</MEAN_MOTION_DOT><MEAN_MOTION_DDOT>0</MEAN_MOTION_DDOT></tleParameters></data></segment></body></omm>

</ndm>
